NORAD_CAT_ID,OBJECT_NAME,OBJECT_TYPE,EPOCH,MEAN_MOTION,ECCENTRICITY,INCLINATION,RA_OF_ASC_NODE,ARG_OF_PERICENTER,MEAN_ANOMALY,BSTAR,MEAN_MOTION_DOT,MEAN_MOTION_DDOT,TLE_LINE0,TLE_LINE1,TLE_LINE2,SEMIMAJOR_AXIS,PERIOD,APOGEE,PERIGEE,DECAYED
52840.0,STARLINK-4049,PAYLOAD,2022-10-22 22:00:00,15.088540900000002,0.0001699999999999,53.2185,172.7515,49.3781,101.5667,-0.00016977,-2.99e-05,0.0,0 STARLINK-4049,1 52840U 22062L   22295.91667824 -.00002990  00000-0 -16977-3 0  9999,2 52840  53.2185 172.7515 0001700  49.3781 101.5667 15.08854090  1303,6917.837,95.437,540.878,538.526,0.0
52840.0,STARLINK-4049,PAYLOAD,2022-10-23 14:00:01,15.08828532,0.0001629999999999,53.2182,169.7573,56.9132,117.277,0.0029456,0.00046889,0.0,0 STARLINK-4049,1 52840U 22062L   22296.58334491  .00046889  00000-0  29456-2 0  9992,2 52840  53.2182 169.7573 0001630  56.9132 117.2770 15.08828532 20128,6917.915,95.438,540.908,538.653,0.0
52840.0,STARLINK-4049,PAYLOAD,2022-10-23 22:00:00,15.08869704,0.0001740999999999,53.218,168.2627,51.9711,133.8174,-0.0043231,-0.00068493,0.0,0 STARLINK-4049,1 52840U 22062L   22296.91667824 -.00068493  00000-0 -43231-2 0  9992,2 52840  53.2180 168.2627 0001741  51.9711 133.8174 15.08869704  1308,6917.79,95.436,540.859,538.45,0.0
52840.0,STARLINK-4049,PAYLOAD,2022-10-24 06:00:00,15.08849443,0.000169,53.2175,166.766,49.5614,147.8262,-0.0055464,-0.00087511,0.0,0 STARLINK-4049,1 52840U 22062L   22297.25001157 -.00087511  00000-0 -55464-2 0  9994,2 52840  53.2175 166.7660 0001690  49.5614 147.8262 15.08849443 20223,6917.852,95.437,540.886,538.547,0.0
52840.0,STARLINK-4049,PAYLOAD,2022-10-24 14:00:01,15.08758206,0.000166,53.2175,165.2685,58.8616,150.1009,0.0047697,0.00076273,0.0,0 STARLINK-4049,1 52840U 22062L   22297.58334491  .00076273  00000-0  47697-2 0  9990,2 52840  53.2175 165.2685 0001660  58.8616 150.1009 15.08758206  1306,6918.13,95.443,541.144,538.847,0.0
52840.0,STARLINK-4049,PAYLOAD,2022-10-24 22:00:00,15.08810021,0.0001888,53.2172,163.7741,55.4746,165.0139,0.00028892,4.309e-05,0.0,0 STARLINK-4049,1 52840U 22062L   22297.91667824  .00004309  00000-0  28892-3 0  9994,2 52840  53.2172 163.7741 0001888  55.4746 165.0139 15.08810021  1301,6917.972,95.439,541.143,538.531,0.0
52840.0,STARLINK-4049,PAYLOAD,2022-10-25 00:00:00,15.08802317,0.0001924,53.2173,163.4003,54.611,258.7692,0.0017511,0.00027662,0.0,0 STARLINK-4049,1 52840U 22062L   22298.00001157  .00027662  00000-0  17511-2 0  9998,2 52840  53.2173 163.4003 0001924  54.6110 258.7692 15.08802317 20334,6917.996,95.44,541.192,538.53,0.0
52840.0,STARLINK-4049,PAYLOAD,2022-10-25 14:00:01,15.08813383,0.000179,53.2166,160.7797,62.0428,181.5786,0.0020580999999999,0.00032595,0.0,0 STARLINK-4049,1 52840U 22062L   22298.58334491  .00032595  00000-0  20581-2 0  9993,2 52840  53.2166 160.7797 0001790  62.0428 181.5786 15.08813383  1300,6917.962,95.439,541.065,538.5880000000002,0.0
52840.0,STARLINK-4049,PAYLOAD,2022-10-25 22:00:01,15.08826286,0.0001954,53.2164,159.2851,56.4439,198.8198,5.591300000000001e-05,6.01e-06,0.0,0 STARLINK-4049,1 52840U 22062L   22298.91668981  .00000601  00000-0  55913-4 0  9996,2 52840  53.2164 159.2851 0001954  56.4439 198.8198 15.08826286 20476,6917.922,95.438,541.139,538.436,0.0
52840.0,STARLINK-4049,PAYLOAD,2022-10-26 14:00:01,15.08831877,0.000187,53.2162,156.2905,62.6601,215.7141,0.0020189,0.00031982,0.0,0 STARLINK-4049,1 52840U 22062L   22299.58334491  .00031982  00000-0  20189-2 0  9997,2 52840  53.2162 156.2905 0001870  62.6601 215.7141 15.08831877  1308,6917.905,95.438,541.064,538.477,0.0
52840.0,STARLINK-4049,PAYLOAD,2022-10-26 22:00:00,15.08840778,0.0002044999999999,53.2162,154.7959,57.0919,232.8813,0.00036667,5.552e-05,0.0,0 STARLINK-4049,1 52840U 22062L   22299.91667824  .00005552  00000-0  36667-3 0  9996,2 52840  53.2162 154.7959 0002045  57.0919 232.8813 15.08840778 20627,6917.878000000002,95.438,541.158,538.328,0.0
52840.0,STARLINK-4049,PAYLOAD,2022-10-27 14:00:01,15.08852978,0.0001943999999999,53.2164,151.8011,62.8043,250.4467,0.0019071,0.00030205,0.0,0 STARLINK-4049,1 52840U 22062L   22300.58335648  .00030205  00000-0  19071-2 0  9990,2 52840  53.2164 151.8011 0001944  62.8043 250.4467 15.08852978  1305,6917.840999999999,95.437,541.0509999999998,538.361,0.0
52840.0,STARLINK-4049,PAYLOAD,2022-10-27 22:00:00,15.08872404,0.0002065999999999,53.2164,150.3065,56.3748,268.438,-0.0023975,-0.00038277,0.0,0 STARLINK-4049,1 52840U 22062L   22300.91667824 -.00038277  00000-0 -23975-2 0  9998,2 52840  53.2164 150.3065 0002066  56.3748 268.4380 15.08872404  1303,6917.781,95.436,541.076,538.217,0.0
52840.0,STARLINK-4049,PAYLOAD,2022-10-28 02:00:01,15.08840974,0.0002013,53.2163,149.5582,53.5026,97.1914,0.0012017,0.00018889,0.0,0 STARLINK-4049,1 52840U 22062L   22301.08335648  .00018889  00000-0  12017-2 0  9993,2 52840  53.2163 149.5582 0002013  53.5026  97.1914 15.08840974 20809,6917.877,95.437,541.135,538.35,0.0
52840.0,STARLINK-4049,PAYLOAD,2022-10-28 14:00:01,15.08829195,0.0001821,53.217,147.3118,60.1105,287.9908,0.0011995999999999,0.0001885,0.0,0 STARLINK-4049,1 52840U 22062L   22301.58335648  .00018850  00000-0  11996-2 0  9991,2 52840  53.2170 147.3118 0001821  60.1105 287.9908 15.08829195  1304,6917.913000000001,95.438,541.038,538.519,0.0
52840.0,STARLINK-4049,PAYLOAD,2022-10-28 22:00:01,15.08828025,0.0001989,53.217,145.8172,54.0942,305.5999,0.0011005,0.00017264,0.0,0 STARLINK-4049,1 52840U 22062L   22301.91668981  .00017264  00000-0  11005-2 0  9996,2 52840  53.2170 145.8172 0001989  54.0942 305.5999 15.08828025 20920,6917.917,95.438,541.158,538.406,0.0
52840.0,STARLINK-4049,PAYLOAD,2022-10-29 12:00:00,15.08814306,0.0001740999999999,53.2173,143.1966,58.34,231.5901,0.0025405,0.00040347,0.0,0 STARLINK-4049,1 52840U 22062L   22302.50001157  .00040347  00000-0  25405-2 0  9995,2 52840  53.2173 143.1966 0001741  58.3400 231.5901 15.08814306  1306,6917.959,95.439,541.028,538.62,0.0
52840.0,STARLINK-4049,PAYLOAD,2022-10-29 22:00:01,15.08844098,0.0001844999999999,53.2174,141.3198,56.0961,338.3841,-0.0038929,-0.00061721,0.0,0 STARLINK-4049,1 52840U 22062L   22302.91668981 -.00061721  00000-0 -38929-2 0  9990,2 52840  53.2174 141.3198 0001845  56.0961 338.3841 15.08844098  1306,6917.868,95.437,541.009,538.457,0.0
52840.0,STARLINK-4049,PAYLOAD,2022-10-30 00:00:00,15.08795495,0.0001776,53.2171,140.9445,55.489,71.8383,0.0019398,0.00030681,0.0,0 STARLINK-4049,1 52840U 22062L   22303.00001157  .00030681  00000-0  19398-2 0  9995,2 52840  53.2171 140.9445 0001776  55.4890  71.8383 15.08795495 21094,6918.016,95.44,541.11,538.653,0.0
52840.0,STARLINK-4049,PAYLOAD,2022-10-30 14:00:01,15.08827397,0.0001663,53.2179,138.3341,57.6902,359.9021,0.00060385,9.332e-05,0.0,0 STARLINK-4049,1 52840U 22062L   22303.58334491  .00009332  00000-0  60385-3 0  9990,2 52840  53.2179 138.3341 0001663  57.6902 359.9021 15.08827397  1309,6917.919,95.438,540.934,538.633,0.0
52840.0,STARLINK-4049,PAYLOAD,2022-10-30 22:00:01,15.08816974,0.0001819,53.2179,136.8394,51.4139,17.829,0.001689,0.00026678,0.0,0 STARLINK-4049,1 52840U 22062L   22303.91668981  .00026678  00000-0  16890-2 0  9994,2 52840  53.2179 136.8394 0001819  51.4139  17.8290 15.08816974  1304,6917.951,95.439,541.0740000000002,538.557,0.0
52840.0,STARLINK-4049,PAYLOAD,2022-10-31 14:00:01,15.0884819,0.0001664,53.2179,133.8454,59.0702,33.2753,-6.8335e-05,-1.376e-05,0.0,0 STARLINK-4049,1 52840U 22062L   22304.58334491 -.00001376  00000-0 -68335-4 0  9997,2 52840  53.2179 133.8454 0001664  59.0702  33.2753 15.08848190  1307,6917.855,95.437,540.871,538.569,0.0
52840.0,STARLINK-4049,PAYLOAD,2022-10-31 22:00:01,15.08840355,0.0001783,53.2178,132.3507,51.6848,52.3327,0.00022643,3.317e-05,0.0,0 STARLINK-4049,1 52840U 22062L   22304.91668981  .00003317  00000-0  22643-3 0  9994,2 52840  53.2178 132.3507 0001783  51.6848  52.3327 15.08840355  1304,6917.879,95.438,540.9780000000002,538.511,0.0
52840.0,STARLINK-4049,PAYLOAD,2022-11-01 00:00:02,15.08839939,0.0001766,53.2175,131.9766,50.2291,146.6887,0.00013251,1.821e-05,0.0,0 STARLINK-4049,1 52840U 22062L   22305.00002315  .00001821  00000-0  13251-3 0  9991,2 52840  53.2175 131.9766 0001766  50.2291 146.6887 15.08839939 21396,6917.880999999999,95.438,540.967,538.524,0.0
52840.0,STARLINK-4049,PAYLOAD,2022-11-01 14:00:01,15.08841481,0.0001604,53.2176,129.3567,58.0033,69.1294,-0.00047854,-7.896e-05,0.0,0 STARLINK-4049,1 52840U 22062L   22305.58334491 -.00007896  00000-0 -47854-3 0  9993,2 52840  53.2176 129.3567 0001604  58.0033  69.1294 15.08841481  1303,6917.876,95.437,540.85,538.631,0.0
52840.0,STARLINK-4049,PAYLOAD,2022-11-01 22:00:00,15.0881599,0.0001744,53.2175,127.862,50.7699,87.9624,0.0025703,0.00040829,0.0,0 STARLINK-4049,1 52840U 22062L   22305.91667824  .00040829  00000-0  25703-2 0  9998,2 52840  53.2175 127.8620 0001744  50.7699  87.9624 15.08815990  1308,6917.954000000002,95.439,541.025,538.612,0.0
52840.0,STARLINK-4049,PAYLOAD,2022-11-02 06:00:00,15.0884282,0.0001636999999999,53.2172,126.3642,55.3016,95.0165,-0.00026319,-4.475e-05,0.0,0 STARLINK-4049,1 52840U 22062L   22306.25001157 -.00004475  00000-0 -26319-3 0  9991,2 52840  53.2172 126.3642 0001637  55.3016  95.0165 15.08842820 21582,6917.871999999999,95.437,540.869,538.604,0.0
52840.0,STARLINK-4049,PAYLOAD,2022-11-02 14:00:01,15.08862997,0.0001729,53.2173,124.8662,59.6501,102.2615,-0.0034094999999999,-0.00054177,0.0,0 STARLINK-4049,1 52840U 22062L   22306.58334491 -.00054177  00000-0 -34095-2 0  9990,2 52840  53.2173 124.8662 0001729  59.6501 102.2615 15.08862997  1302,6917.81,95.436,540.871,538.479,0.0
52840.0,STARLINK-4049,PAYLOAD,2022-11-02 18:03:17,15.08846439,0.0001789,53.2184,124.1087,55.9962,304.12,0.00013315,1.832e-05,0.0,0 STARLINK-4049,1 52840U 22062L   22306.75229017  .00001832  00000-0  13315-3 0  9997,2 52840  53.2184 124.1087 0001789  55.9962 304.1200 15.08846439 21166,6917.861,95.437,540.9630000000002,538.488,0.0
